IRIDIUM 63              
1 25286U 98021B   25251.48608699  .00000549  00000+0  18005-3 0  9992
2 25286  86.3959  47.1583 0002152  85.3941 274.7501 14.36605734435808
IRIDIUM 69              
1 25319U 98026A   25251.52065125  .00000533  00000+0  15955-3 0  9994
2 25319  86.3931  60.1776 0004440  99.9441 260.2260 14.41039681435060
IRIDIUM 71              
1 25320U 98026B   25251.51677840  .00000533  00000+0  15916-3 0  9995
2 25320  86.3939  54.8568 0003253 130.0833 230.0652 14.41221020435590
IRIDIUM 73              
1 25344U 98032C   25251.60078588  .00000805  00000+0  19512-3 0  9990
2 25344  86.4461  11.3831 0002838  87.1987 272.9544 14.51808366442664
IRIDIUM 82              
1 25467U 98051A   25251.52734791  .00028496  00000+0  72733-3 0  9993
2 25467  86.3598  68.6178 0077440 340.6270  19.2040 15.36245873436738
